[{"OBJECT_NAME":"STARLINK-32797","OBJECT_ID":"2025-019Q","EPOCH":"2026-03-18T22:07:28.199424","MEAN_MOTION":15.27592675,"ECCENTRICITY":6.567e-5,"INCLINATION":42.999,"RA_OF_ASC_NODE":36.7734,"ARG_OF_PERICENTER":265.6045,"MEAN_ANOMALY":94.4731,"EPHEMERIS_TYPE":0,"CLASSIFICATION_TYPE":"U","NORAD_CAT_ID":62843,"ELEMENT_SET_NO":999,"REV_AT_EPOCH":6366,"BSTAR":0.00092453147,"MEAN_MOTION_DOT":0.00025276,"MEAN_MOTION_DDOT":0},{"OBJECT_NAME":"STARLINK-32794","OBJECT_ID":"2025-019R","EPOCH":"2026-03-18T03:54:36.361440","MEAN_MOTION":15.2761488,"ECCENTRICITY":0.00011912,"INCLINATION":43.0001,"RA_OF_ASC_NODE":41.3943,"ARG_OF_PERICENTER":227.7353,"MEAN_ANOMALY":132.3398,"EPHEMERIS_TYPE":0,"CLASSIFICATION_TYPE":"U","NORAD_CAT_ID":62844,"ELEMENT_SET_NO":999,"REV_AT_EPOCH":6354,"BSTAR":0.00078398475,"MEAN_MOTION_DOT":0.00021397,"MEAN_MOTION_DDOT":0},{"OBJECT_NAME":"STARLINK-32807","OBJECT_ID":"2025-019S","EPOCH":"2026-03-18T21:18:54.982368","MEAN_MOTION":15.27563401,"ECCENTRICITY":5.168e-5,"INCLINATION":42.9968,"RA_OF_ASC_NODE":29.5929,"ARG_OF_PERICENTER":142.5591,"MEAN_ANOMALY":217.5297,"EPHEMERIS_TYPE":0,"CLASSIFICATION_TYPE":"U","NORAD_CAT_ID":62845,"ELEMENT_SET_NO":999,"REV_AT_EPOCH":6374,"BSTAR":0.00060038759,"MEAN_MOTION_DOT":0.00016288,"MEAN_MOTION_DDOT":0},{"OBJECT_NAME":"STARLINK-32804","OBJECT_ID":"2025-019T","EPOCH":"2026-03-18T22:18:34.409952","MEAN_MOTION":15.27586572,"ECCENTRICITY":5.364e-5,"INCLINATION":42.9966,"RA_OF_ASC_NODE":36.8327,"ARG_OF_PERICENTER":244.5289,"MEAN_ANOMALY":115.5507,"EPHEMERIS_TYPE":0,"CLASSIFICATION_TYPE":"U","NORAD_CAT_ID":62846,"ELEMENT_SET_NO":999,"REV_AT_EPOCH":6366,"BSTAR":0.00060175364,"MEAN_MOTION_DOT":0.00016337,"MEAN_MOTION_DDOT":0},{"OBJECT_NAME":"STARLINK-32799","OBJECT_ID":"2025-019U","EPOCH":"2026-03-18T21:56:21.502464","MEAN_MOTION":15.27574113,"ECCENTRICITY":0.00013171,"INCLINATION":43.0005,"RA_OF_ASC_NODE":36.7121,"ARG_OF_PERICENTER":265.5375,"MEAN_ANOMALY":94.5326,"EPHEMERIS_TYPE":0,"CLASSIFICATION_TYPE":"U","NORAD_CAT_ID":62847,"ELEMENT_SET_NO":999,"REV_AT_EPOCH":6366,"BSTAR":0.00052520992,"MEAN_MOTION_DOT":0.00014216,"MEAN_MOTION_DDOT":0},{"OBJECT_NAME":"STARLINK-32781","OBJECT_ID":"2025-019V","EPOCH":"2026-03-18T20:42:33.803136","MEAN_MOTION":15.27595305,"ECCENTRICITY":8.42e-5,"INCLINATION":43.0005,"RA_OF_ASC_NODE":37.1949,"ARG_OF_PERICENTER":265.3162,"MEAN_ANOMALY":94.7593,"EPHEMERIS_TYPE":0,"CLASSIFICATION_TYPE":"U","NORAD_CAT_ID":62848,"ELEMENT_SET_NO":999,"REV_AT_EPOCH":6365,"BSTAR":0.00072031812,"MEAN_MOTION_DOT":0.00019621,"MEAN_MOTION_DDOT":0},{"OBJECT_NAME":"STARLINK-32809","OBJECT_ID":"2025-019W","EPOCH":"2026-03-18T13:50:46.472928","MEAN_MOTION":15.27593312,"ECCENTRICITY":0.0002135,"INCLINATION":43.0009,"RA_OF_ASC_NODE":38.4812,"ARG_OF_PERICENTER":269.607,"MEAN_ANOMALY":90.4537,"EPHEMERIS_TYPE":0,"CLASSIFICATION_TYPE":"U","NORAD_CAT_ID":62849,"ELEMENT_SET_NO":999,"REV_AT_EPOCH":6361,"BSTAR":0.00060861,"MEAN_MOTION_DOT":0.0001653,"MEAN_MOTION_DDOT":0},{"OBJECT_NAME":"STARLINK-32868","OBJECT_ID":"2025-022A","EPOCH":"2026-03-18T18:13:51.675168","MEAN_MOTION":15.30210607,"ECCENTRICITY":0.00014107,"INCLINATION":53.1602,"RA_OF_ASC_NODE":87.1371,"ARG_OF_PERICENTER":66.278,"MEAN_ANOMALY":293.8369,"EPHEMERIS_TYPE":0,"CLASSIFICATION_TYPE":"U","NORAD_CAT_ID":62854,"ELEMENT_SET_NO":999,"REV_AT_EPOCH":6410,"BSTAR":0.00067735044,"MEAN_MOTION_DOT":0.00019762,"MEAN_MOTION_DDOT":0},{"OBJECT_NAME":"STARLINK-32867","OBJECT_ID":"2025-022B","EPOCH":"2026-03-18T07:20:02.773824","MEAN_MOTION":15.30218433,"ECCENTRICITY":0.0002387,"INCLINATION":53.1591,"RA_OF_ASC_NODE":89.2721,"ARG_OF_PERICENTER":88.8803,"MEAN_ANOMALY":271.2471,"EPHEMERIS_TYPE":0,"CLASSIFICATION_TYPE":"U","NORAD_CAT_ID":62855,"ELEMENT_SET_NO":999,"REV_AT_EPOCH":6322,"BSTAR":0.00068783,"MEAN_MOTION_DOT":0.00020079,"MEAN_MOTION_DDOT":0},{"OBJECT_NAME":"STARLINK-32860","OBJECT_ID":"2025-022C","EPOCH":"2026-03-18T18:01:51.912192","MEAN_MOTION":15.30211955,"ECCENTRICITY":0.00011998,"INCLINATION":53.1599,"RA_OF_ASC_NODE":87.7927,"ARG_OF_PERICENTER":89.4345,"MEAN_ANOMALY":270.6793,"EPHEMERIS_TYPE":0,"CLASSIFICATION_TYPE":"U","NORAD_CAT_ID":62856,"ELEMENT_SET_NO":999,"REV_AT_EPOCH":6328,"BSTAR":0.00051458142,"MEAN_MOTION_DOT":0.00014917,"MEAN_MOTION_DDOT":0},{"OBJECT_NAME":"STARLINK-32873","OBJECT_ID":"2025-022D","EPOCH":"2026-03-18T18:00:20.797344","MEAN_MOTION":15.30207872,"ECCENTRICITY":0.00013557,"INCLINATION":53.1601,"RA_OF_ASC_NODE":87.789,"ARG_OF_PERICENTER":99.1016,"MEAN_ANOMALY":261.0138,"EPHEMERIS_TYPE":0,"CLASSIFICATION_TYPE":"U","NORAD_CAT_ID":62857,"ELEMENT_SET_NO":999,"REV_AT_EPOCH":6328,"BSTAR":0.00043380565,"MEAN_MOTION_DOT":0.00012514,"MEAN_MOTION_DDOT":0},{"OBJECT_NAME":"STARLINK-32866","OBJECT_ID":"2025-022E","EPOCH":"2026-03-18T07:26:07.630656","MEAN_MOTION":15.30213346,"ECCENTRICITY":0.0002265,"INCLINATION":53.1586,"RA_OF_ASC_NODE":89.3083,"ARG_OF_PERICENTER":90.249,"MEAN_ANOMALY":269.8771,"EPHEMERIS_TYPE":0,"CLASSIFICATION_TYPE":"U","NORAD_CAT_ID":62858,"ELEMENT_SET_NO":999,"REV_AT_EPOCH":6322,"BSTAR":0.00071011,"MEAN_MOTION_DOT":0.0002074,"MEAN_MOTION_DDOT":0},{"OBJECT_NAME":"STARLINK-32869","OBJECT_ID":"2025-022F","EPOCH":"2026-03-18T07:42:50.319072","MEAN_MOTION":15.30202066,"ECCENTRICITY":0.0001115,"INCLINATION":53.1557,"RA_OF_ASC_NODE":89.3646,"ARG_OF_PERICENTER":75.4505,"MEAN_ANOMALY":284.6619,"EPHEMERIS_TYPE":0,"CLASSIFICATION_TYPE":"U","NORAD_CAT_ID":62859,"ELEMENT_SET_NO":999,"REV_AT_EPOCH":6322,"BSTAR":0.00066829226,"MEAN_MOTION_DOT":0.00019487,"MEAN_MOTION_DDOT":0},{"OBJECT_NAME":"STARLINK-32831","OBJECT_ID":"2025-022G","EPOCH":"2026-03-18T11:03:06.323040","MEAN_MOTION":15.30208159,"ECCENTRICITY":0.00011494,"INCLINATION":53.157,"RA_OF_ASC_NODE":88.8272,"ARG_OF_PERICENTER":72.9999,"MEAN_ANOMALY":287.1128,"EPHEMERIS_TYPE":0,"CLASSIFICATION_TYPE":"U","NORAD_CAT_ID":62860,"ELEMENT_SET_NO":999,"REV_AT_EPOCH":6323,"BSTAR":0.00048516042,"MEAN_MOTION_DOT":0.00014041,"MEAN_MOTION_DDOT":0},{"OBJECT_NAME":"STARLINK-32859","OBJECT_ID":"2025-022H","EPOCH":"2026-03-18T18:07:57.399744","MEAN_MOTION":15.3018911,"ECCENTRICITY":0.00012449,"INCLINATION":53.1591,"RA_OF_ASC_NODE":87.8202,"ARG_OF_PERICENTER":80.4291,"MEAN_ANOMALY":279.6851,"EPHEMERIS_TYPE":0,"CLASSIFICATION_TYPE":"U","NORAD_CAT_ID":62861,"ELEMENT_SET_NO":999,"REV_AT_EPOCH":6328,"BSTAR":0.00049064657,"MEAN_MOTION_DOT":0.00014195,"MEAN_MOTION_DDOT":0},{"OBJECT_NAME":"STARLINK-32864","OBJECT_ID":"2025-022J","EPOCH":"2026-03-18T17:16:16.636800","MEAN_MOTION":15.30205783,"ECCENTRICITY":9.731e-5,"INCLINATION":53.1571,"RA_OF_ASC_NODE":87.5857,"ARG_OF_PERICENTER":60.5139,"MEAN_ANOMALY":299.5959,"EPHEMERIS_TYPE":0,"CLASSIFICATION_TYPE":"U","NORAD_CAT_ID":62862,"ELEMENT_SET_NO":999,"REV_AT_EPOCH":6328,"BSTAR":0.00045503092,"MEAN_MOTION_DOT":0.00013144,"MEAN_MOTION_DDOT":0}]
