STARLINK-32797          
1 62843U 25019Q   26077.92185416  .00025276  00000+0  92453-3 0  9995
2 62843  42.9990  36.7734 0000656 265.6045  94.4731 15.27592675 63661
STARLINK-32794          
1 62844U 25019R   26077.16292085  .00021397  00000+0  78398-3 0  9995
2 62844  43.0001  41.3943 0001191 227.7353 132.3398 15.27614880 63548
STARLINK-32807          
1 62845U 25019S   26077.88813637  .00016288  00000+0  60039-3 0  9993
2 62845  42.9968  29.5929 0000516 142.5591 217.5297 15.27563401 63747
STARLINK-32804          
1 62846U 25019T   26077.92956493  .00016337  00000+0  60175-3 0  9993
2 62846  42.9966  36.8327 0000536 244.5289 115.5507 15.27586572 63664
STARLINK-32799          
1 62847U 25019U   26077.91413776  .00014216  00000+0  52521-3 0  9995
2 62847  43.0005  36.7121 0001317 265.5375  94.5326 15.27574113 63662
STARLINK-32781          
1 62848U 25019V   26077.86289124  .00019621  00000+0  72032-3 0  9992
2 62848  43.0005  37.1949 0000842 265.3162  94.7593 15.27595305 63653
STARLINK-32809          
1 62849U 25019W   26077.57692677  .00016530  00000+0  60861-3 0  9995
2 62849  43.0009  38.4812 0002135 269.6070  90.4537 15.27593312 63616
STARLINK-32868          
1 62854U 25022A   26077.75962587  .00019762  00000+0  67735-3 0  9992
2 62854  53.1602  87.1371 0001410  66.2780 293.8369 15.30210607 64102
STARLINK-32867          
1 62855U 25022B   26077.30558766  .00020079  00000+0  68783-3 0  9991
2 62855  53.1591  89.2721 0002387  88.8803 271.2471 15.30218433 63223
STARLINK-32860          
1 62856U 25022C   26077.75129528  .00014917  00000+0  51458-3 0  9996
2 62856  53.1599  87.7927 0001199  89.4345 270.6793 15.30211955 63289
STARLINK-32873          
1 62857U 25022D   26077.75024071  .00012514  00000+0  43381-3 0  9991
2 62857  53.1601  87.7890 0001355  99.1016 261.0138 15.30207872 63280
STARLINK-32866          
1 62858U 25022E   26077.30981054  .00020740  00000+0  71011-3 0  9997
2 62858  53.1586  89.3083 0002265  90.2490 269.8771 15.30213346 63220
STARLINK-32869          
1 62859U 25022F   26077.32141573  .00019487  00000+0  66829-3 0  9991
2 62859  53.1557  89.3646 0001115  75.4505 284.6619 15.30202066 63222
STARLINK-32831          
1 62860U 25022G   26077.46048985  .00014041  00000+0  48516-3 0  9995
2 62860  53.1570  88.8272 0001149  72.9999 287.1128 15.30208159 63237
STARLINK-32859          
1 62861U 25022H   26077.75552546  .00014195  00000+0  49065-3 0  9991
2 62861  53.1591  87.8202 0001244  80.4291 279.6851 15.30189110 63287
STARLINK-32864          
1 62862U 25022J   26077.71963700  .00013144  00000+0  45503-3 0  9992
2 62862  53.1571  87.5857 0000973  60.5139 299.5959 15.30205783 63282
